[{"OBJECT_NAME":"STARLINK-36320","OBJECT_ID":"2026-042X","EPOCH":"2026-03-20T04:00:01.999584","MEAN_MOTION":15.77328059,"ECCENTRICITY":0.00011308,"INCLINATION":53.1593,"RA_OF_ASC_NODE":142.0875,"ARG_OF_PERICENTER":106.9084,"MEAN_ANOMALY":205.3085,"EPHEMERIS_TYPE":0,"CLASSIFICATION_TYPE":"U","NORAD_CAT_ID":68090,"ELEMENT_SET_NO":999,"REV_AT_EPOCH":372,"BSTAR":-0.012646705,"MEAN_MOTION_DOT":-0.01858189,"MEAN_MOTION_DDOT":0},{"OBJECT_NAME":"STARLINK-36324","OBJECT_ID":"2026-042Y","EPOCH":"2026-03-20T04:00:01.999584","MEAN_MOTION":15.75273216,"ECCENTRICITY":8.929e-5,"INCLINATION":53.1592,"RA_OF_ASC_NODE":142.1398,"ARG_OF_PERICENTER":79.8314,"MEAN_ANOMALY":206.652,"EPHEMERIS_TYPE":0,"CLASSIFICATION_TYPE":"U","NORAD_CAT_ID":68091,"ELEMENT_SET_NO":999,"REV_AT_EPOCH":372,"BSTAR":-0.0006476055,"MEAN_MOTION_DOT":-0.00098901,"MEAN_MOTION_DDOT":0},{"OBJECT_NAME":"STARLINK-36896","OBJECT_ID":"2026-042Z","EPOCH":"2026-03-20T04:00:01.999584","MEAN_MOTION":15.81225057,"ECCENTRICITY":9.942e-5,"INCLINATION":53.159,"RA_OF_ASC_NODE":142.0681,"ARG_OF_PERICENTER":78.8996,"MEAN_ANOMALY":242.9061,"EPHEMERIS_TYPE":0,"CLASSIFICATION_TYPE":"U","NORAD_CAT_ID":68092,"ELEMENT_SET_NO":999,"REV_AT_EPOCH":373,"BSTAR":-0.0064531488,"MEAN_MOTION_DOT":-0.01156571,"MEAN_MOTION_DDOT":0},{"OBJECT_NAME":"STARLINK-36251","OBJECT_ID":"2026-042AA","EPOCH":"2026-03-20T04:00:01.999584","MEAN_MOTION":15.80895931,"ECCENTRICITY":0.0001327,"INCLINATION":53.1589,"RA_OF_ASC_NODE":142.0504,"ARG_OF_PERICENTER":105.6486,"MEAN_ANOMALY":224.7463,"EPHEMERIS_TYPE":0,"CLASSIFICATION_TYPE":"U","NORAD_CAT_ID":68093,"ELEMENT_SET_NO":999,"REV_AT_EPOCH":372,"BSTAR":-0.0001361449,"MEAN_MOTION_DOT":-0.00027513,"MEAN_MOTION_DDOT":0},{"OBJECT_NAME":"STARLINK-36787","OBJECT_ID":"2026-042AB","EPOCH":"2026-03-20T04:00:01.999584","MEAN_MOTION":15.75257313,"ECCENTRICITY":7.602e-5,"INCLINATION":53.1593,"RA_OF_ASC_NODE":142.0861,"ARG_OF_PERICENTER":86.9677,"MEAN_ANOMALY":225.2634,"EPHEMERIS_TYPE":0,"CLASSIFICATION_TYPE":"U","NORAD_CAT_ID":68094,"ELEMENT_SET_NO":999,"REV_AT_EPOCH":372,"BSTAR":-0.00038696388,"MEAN_MOTION_DOT":-0.00059584,"MEAN_MOTION_DDOT":0},{"OBJECT_NAME":"STARLINK-36790","OBJECT_ID":"2026-042AC","EPOCH":"2026-03-20T04:00:01.999584","MEAN_MOTION":15.80875061,"ECCENTRICITY":0.0001253,"INCLINATION":53.1587,"RA_OF_ASC_NODE":142.059,"ARG_OF_PERICENTER":92.5764,"MEAN_ANOMALY":233.5562,"EPHEMERIS_TYPE":0,"CLASSIFICATION_TYPE":"U","NORAD_CAT_ID":68095,"ELEMENT_SET_NO":999,"REV_AT_EPOCH":372,"BSTAR":-2.7069042e-5,"MEAN_MOTION_DOT":-6.038e-5,"MEAN_MOTION_DDOT":0},{"OBJECT_NAME":"STARLINK-36328","OBJECT_ID":"2026-042AD","EPOCH":"2026-03-20T04:00:01.999584","MEAN_MOTION":15.80871844,"ECCENTRICITY":0.00013355,"INCLINATION":53.1588,"RA_OF_ASC_NODE":142.0231,"ARG_OF_PERICENTER":91.9821,"MEAN_ANOMALY":251.2379,"EPHEMERIS_TYPE":0,"CLASSIFICATION_TYPE":"U","NORAD_CAT_ID":68096,"ELEMENT_SET_NO":999,"REV_AT_EPOCH":372,"BSTAR":-3.2539589e-5,"MEAN_MOTION_DOT":-7.116e-5,"MEAN_MOTION_DDOT":0},{"OBJECT_NAME":"STARLINK-36853","OBJECT_ID":"2026-042AE","EPOCH":"2026-03-20T04:00:01.999584","MEAN_MOTION":15.80875313,"ECCENTRICITY":0.00013575,"INCLINATION":53.1591,"RA_OF_ASC_NODE":142.0411,"ARG_OF_PERICENTER":109.7675,"MEAN_ANOMALY":224.9067,"EPHEMERIS_TYPE":0,"CLASSIFICATION_TYPE":"U","NORAD_CAT_ID":68097,"ELEMENT_SET_NO":999,"REV_AT_EPOCH":373,"BSTAR":-8.543374e-5,"MEAN_MOTION_DOT":-0.00017529,"MEAN_MOTION_DDOT":0},{"OBJECT_NAME":"GLOBAL-34","OBJECT_ID":"2026-043A","EPOCH":"2026-03-20T04:04:04.400832","MEAN_MOTION":15.31624721,"ECCENTRICITY":0.00054463,"INCLINATION":42.0222,"RA_OF_ASC_NODE":15.0034,"ARG_OF_PERICENTER":353.5241,"MEAN_ANOMALY":6.5525,"EPHEMERIS_TYPE":0,"CLASSIFICATION_TYPE":"U","NORAD_CAT_ID":68098,"ELEMENT_SET_NO":999,"REV_AT_EPOCH":217,"BSTAR":0.00027782481,"MEAN_MOTION_DOT":8.427e-5,"MEAN_MOTION_DDOT":0},{"OBJECT_NAME":"STARLINK-37022","OBJECT_ID":"2026-044A","EPOCH":"2026-03-20T04:00:01.999584","MEAN_MOTION":15.81198044,"ECCENTRICITY":0.00020556,"INCLINATION":97.2842,"RA_OF_ASC_NODE":39.8093,"ARG_OF_PERICENTER":109.0907,"MEAN_ANOMALY":64.4597,"EPHEMERIS_TYPE":0,"CLASSIFICATION_TYPE":"U","NORAD_CAT_ID":68101,"ELEMENT_SET_NO":999,"REV_AT_EPOCH":308,"BSTAR":-0.0071740617,"MEAN_MOTION_DOT":-0.01240175,"MEAN_MOTION_DDOT":0},{"OBJECT_NAME":"STARLINK-37046","OBJECT_ID":"2026-044B","EPOCH":"2026-03-20T04:00:01.999584","MEAN_MOTION":15.81044053,"ECCENTRICITY":0.00011687,"INCLINATION":97.2844,"RA_OF_ASC_NODE":39.8115,"ARG_OF_PERICENTER":112.3024,"MEAN_ANOMALY":65.5539,"EPHEMERIS_TYPE":0,"CLASSIFICATION_TYPE":"U","NORAD_CAT_ID":68102,"ELEMENT_SET_NO":999,"REV_AT_EPOCH":308,"BSTAR":-0.0037746194,"MEAN_MOTION_DOT":-0.00676784,"MEAN_MOTION_DDOT":0},{"OBJECT_NAME":"STARLINK-37018","OBJECT_ID":"2026-044C","EPOCH":"2026-03-20T04:00:01.999584","MEAN_MOTION":15.80788875,"ECCENTRICITY":0.00011943,"INCLINATION":97.2842,"RA_OF_ASC_NODE":39.8134,"ARG_OF_PERICENTER":106.1278,"MEAN_ANOMALY":76.0477,"EPHEMERIS_TYPE":0,"CLASSIFICATION_TYPE":"U","NORAD_CAT_ID":68103,"ELEMENT_SET_NO":999,"REV_AT_EPOCH":303,"BSTAR":0.00022339322,"MEAN_MOTION_DOT":0.00042805,"MEAN_MOTION_DDOT":0},{"OBJECT_NAME":"STARLINK-37041","OBJECT_ID":"2026-044D","EPOCH":"2026-03-20T04:00:01.999584","MEAN_MOTION":15.80934755,"ECCENTRICITY":0.00013618,"INCLINATION":97.2843,"RA_OF_ASC_NODE":39.8173,"ARG_OF_PERICENTER":98.3959,"MEAN_ANOMALY":92.2965,"EPHEMERIS_TYPE":0,"CLASSIFICATION_TYPE":"U","NORAD_CAT_ID":68104,"ELEMENT_SET_NO":999,"REV_AT_EPOCH":303,"BSTAR":-0.0018149618,"MEAN_MOTION_DOT":-0.00336573,"MEAN_MOTION_DDOT":0},{"OBJECT_NAME":"STARLINK-37021","OBJECT_ID":"2026-044E","EPOCH":"2026-03-20T04:00:01.999584","MEAN_MOTION":15.80719214,"ECCENTRICITY":9.975e-5,"INCLINATION":97.2838,"RA_OF_ASC_NODE":39.8179,"ARG_OF_PERICENTER":158.9668,"MEAN_ANOMALY":35.9802,"EPHEMERIS_TYPE":0,"CLASSIFICATION_TYPE":"U","NORAD_CAT_ID":68105,"ELEMENT_SET_NO":999,"REV_AT_EPOCH":303,"BSTAR":0.00090374229,"MEAN_MOTION_DOT":0.00175719,"MEAN_MOTION_DDOT":0},{"OBJECT_NAME":"STARLINK-37024","OBJECT_ID":"2026-044F","EPOCH":"2026-03-20T04:00:01.999584","MEAN_MOTION":15.80796047,"ECCENTRICITY":0.00015252,"INCLINATION":97.2841,"RA_OF_ASC_NODE":39.8202,"ARG_OF_PERICENTER":99.1739,"MEAN_ANOMALY":100.0856,"EPHEMERIS_TYPE":0,"CLASSIFICATION_TYPE":"U","NORAD_CAT_ID":68106,"ELEMENT_SET_NO":999,"REV_AT_EPOCH":303,"BSTAR":0.00031981236,"MEAN_MOTION_DOT":0.00061495,"MEAN_MOTION_DDOT":0},{"OBJECT_NAME":"STARLINK-37005","OBJECT_ID":"2026-044G","EPOCH":"2026-03-20T04:00:01.999584","MEAN_MOTION":15.80792084,"ECCENTRICITY":0.00011534,"INCLINATION":97.2841,"RA_OF_ASC_NODE":39.8148,"ARG_OF_PERICENTER":91.9976,"MEAN_ANOMALY":94.4516,"EPHEMERIS_TYPE":0,"CLASSIFICATION_TYPE":"U","NORAD_CAT_ID":68107,"ELEMENT_SET_NO":999,"REV_AT_EPOCH":303,"BSTAR":0.00021276418,"MEAN_MOTION_DOT":0.00040758,"MEAN_MOTION_DDOT":0}]
