STARLINK-36320          
1 68090U 26042X   26079.16668981 -.01858189  00000+0 -12647-1 0  9998
2 68090  53.1593 142.0875 0001130 106.9084 205.3085 15.77328059  3723
STARLINK-36324          
1 68091U 26042Y   26079.16668981 -.00098901  00000+0 -64761-3 0  9992
2 68091  53.1592 142.1398 0000892  79.8314 206.6520 15.75273216  3722
STARLINK-36896          
1 68092U 26042Z   26079.16668981 -.01156571  00000+0 -64531-2 0  9996
2 68092  53.1590 142.0681 0000994  78.8996 242.9061 15.81225057  3734
STARLINK-36251          
1 68093U 26042AA  26079.16668981 -.00027513  00000+0 -13614-3 0  9996
2 68093  53.1589 142.0504 0001327 105.6486 224.7463 15.80895931  3727
STARLINK-36787          
1 68094U 26042AB  26079.16668981 -.00059584  00000+0 -38696-3 0  9997
2 68094  53.1593 142.0861 0000760  86.9677 225.2634 15.75257313  3728
STARLINK-36790          
1 68095U 26042AC  26079.16668981 -.00006038  00000+0 -27069-4 0  9997
2 68095  53.1587 142.0590 0001253  92.5764 233.5562 15.80875061  3723
STARLINK-36328          
1 68096U 26042AD  26079.16668981 -.00007116  00000+0 -32540-4 0  9996
2 68096  53.1588 142.0231 0001335  91.9821 251.2379 15.80871844  3723
STARLINK-36853          
1 68097U 26042AE  26079.16668981 -.00017529  00000+0 -85434-4 0  9996
2 68097  53.1591 142.0411 0001357 109.7675 224.9067 15.80875313  3734
GLOBAL-34               
1 68098U 26043A   26079.16949538  .00008427  00000+0  27782-3 0  9994
2 68098  42.0222  15.0034 0005446 353.5241   6.5525 15.31624721  2175
STARLINK-37022          
1 68101U 26044A   26079.16668981 -.01240175  00000+0 -71741-2 0  9994
2 68101  97.2842  39.8093 0002055 109.0907  64.4597 15.81198044  3087
STARLINK-37046          
1 68102U 26044B   26079.16668981 -.00676784  00000+0 -37746-2 0  9990
2 68102  97.2844  39.8115 0001168 112.3024  65.5539 15.81044053  3084
STARLINK-37018          
1 68103U 26044C   26079.16668981  .00042805  00000+0  22339-3 0  9993
2 68103  97.2842  39.8134 0001194 106.1278  76.0477 15.80788875  3034
STARLINK-37041          
1 68104U 26044D   26079.16668981 -.00336573  00000+0 -18150-2 0  9999
2 68104  97.2843  39.8173 0001361  98.3959  92.2965 15.80934755  3035
STARLINK-37021          
1 68105U 26044E   26079.16668981  .00175719  00000+0  90374-3 0  9990
2 68105  97.2838  39.8179 0000997 158.9668  35.9802 15.80719214  3035
STARLINK-37024          
1 68106U 26044F   26079.16668981  .00061495  00000+0  31981-3 0  9995
2 68106  97.2841  39.8202 0001525  99.1739 100.0856 15.80796047  3032
STARLINK-37005          
1 68107U 26044G   26079.16668981  .00040758  00000+0  21276-3 0  9991
2 68107  97.2841  39.8148 0001153  91.9976  94.4516 15.80792084  3038
